[{"OBJECT_NAME":"ICEYE-X37","OBJECT_ID":"2024-043E","EPOCH":"2026-03-09T21:28:27.980256","MEAN_MOTION":15.05207146,"ECCENTRICITY":0.00148076,"INCLINATION":97.8149,"RA_OF_ASC_NODE":204.4924,"ARG_OF_PERICENTER":351.2295,"MEAN_ANOMALY":8.867,"EPHEMERIS_TYPE":0,"CLASSIFICATION_TYPE":"U","NORAD_CAT_ID":59102,"ELEMENT_SET_NO":999,"REV_AT_EPOCH":11014,"BSTAR":0.00044484532,"MEAN_MOTION_DOT":6.299e-5,"MEAN_MOTION_DDOT":0},{"OBJECT_NAME":"STARLINK-34373","OBJECT_ID":"2025-158N","EPOCH":"2026-03-09T15:02:29.418432","MEAN_MOTION":15.05649454,"ECCENTRICITY":0.0003423,"INCLINATION":97.6023,"RA_OF_ASC_NODE":293.9826,"ARG_OF_PERICENTER":86.373,"MEAN_ANOMALY":273.7888,"EPHEMERIS_TYPE":0,"CLASSIFICATION_TYPE":"U","NORAD_CAT_ID":64944,"ELEMENT_SET_NO":999,"REV_AT_EPOCH":3534,"BSTAR":0.00024766,"MEAN_MOTION_DOT":3.515e-5,"MEAN_MOTION_DDOT":0}]
